ORBCOMM FM115 [+]       
1 41186U 15081H   23287.48059770  .00002253  00000+0  50034-3 0  9993
2 41186  46.9986  62.7257 0000808 202.8896 157.1954 14.59995136418315
ORBCOMM FM108 [+]       
1 41187U 15081J   23287.55978215  .00001472  00000+0  36903-3 0  9997
2 41187  47.0036 110.1200 0002001  28.1823 331.9170 14.55992500417607
ORBCOMM FM117 [+]       
1 41188U 15081K   23287.25084293  .00001508  00000+0  37725-3 0  9992
2 41188  46.9998 110.5361 0002578  38.0390 322.0676 14.55962482417601
ORBCOMM FM116 [+]       
1 41189U 15081L   23287.44656927  .00002678  00000+0  64028-3 0  9998
2 41189  47.0008 199.4239 0001387 133.8045 226.2954 14.55991484416443
